{
  "type": "FeatureCollection",
  "features": [
    {
      "type": "Feature",
      "geometry": {
        "type": "MultiPolygon",
        "coordinates": [
          [
            [
              [
                127.1721,
                36.7308
              ],
              [
                127.1721,
                36.7307
              ],
              [
                127.1719,
                36.7307
              ],
              [
                127.1719,
                36.7307
              ],
              [
                127.1719,
                36.7307
              ],
              [
                127.1731,
                36.7292
              ],
              [
                127.1736,
                36.7287
              ],
              [
                127.1741,
                36.7286
              ],
              [
                127.1742,
                36.7286
              ],
              [
                127.177,
                36.7286
              ],
              [
                127.1786,
                36.7288
              ],
              [
                127.18,
                36.7291
              ],
              [
                127.1846,
                36.7297
              ],
              [
                127.1873,
                36.728
              ],
              [
                127.1889,
                36.7277
              ],
              [
                127.1891,
                36.7277
              ],
              [
                127.1892,
                36.7277
              ],
              [
                127.1894,
                36.7278
              ],
              [
                127.1894,
                36.7278
              ],
              [
                127.1895,
                36.7281
              ],
              [
                127.1907,
                36.7285
              ],
              [
                127.1924,
                36.7286
              ],
              [
                127.1957,
                36.7284
              ],
              [
                127.1986,
                36.7273
              ],
              [
                127.2007,
                36.7265
              ],
              [
                127.2023,
                36.7263
              ],
              [
                127.2031,
                36.7261
              ],
              [
                127.2037,
                36.7253
              ],
              [
                127.2037,
                36.7237
              ],
              [
                127.2038,
                36.723
              ],
              [
                127.2044,
                36.7216
              ],
              [
                127.2048,
                36.7209
              ],
              [
                127.2063,
                36.7207
              ],
              [
                127.2079,
                36.7196
              ],
              [
                127.208,
                36.7195
              ],
              [
                127.2079,
                36.7192
              ],
              [
                127.2079,
                36.719
              ],
              [
                127.21,
                36.7185
              ],
              [
                127.2123,
                36.7181
              ],
              [
                127.2148,
                36.7171
              ],
              [
                127.2153,
                36.7166
              ],
              [
                127.2161,
                36.7161
              ],
              [
                127.2181,
                36.7156
              ],
              [
                127.2185,
                36.7155
              ],
              [
                127.219,
                36.7155
              ],
              [
                127.2191,
                36.7155
              ],
              [
                127.2192,
                36.7155
              ],
              [
                127.2212,
                36.7156
              ],
              [
                127.2236,
                36.7157
              ],
              [
                127.2238,
                36.7155
              ],
              [
                127.224,
                36.7153
              ],
              [
                127.2242,
                36.7147
              ],
              [
                127.224,
                36.7145
              ],
              [
                127.2238,
                36.7144
              ],
              [
                127.2235,
                36.7141
              ],
              [
                127.2234,
                36.7138
              ],
              [
                127.2233,
                36.713
              ],
              [
                127.2235,
                36.7122
              ],
              [
                127.2235,
                36.7122
              ],
              [
                127.2236,
                36.7117
              ],
              [
                127.2243,
                36.711
              ],
              [
                127.2245,
                36.7108
              ],
              [
                127.2249,
                36.7105
              ],
              [
                127.2251,
                36.7104
              ],
              [
                127.2286,
                36.7082
              ],
              [
                127.2297,
                36.7078
              ],
              [
                127.23,
                36.7078
              ],
              [
                127.2303,
                36.7078
              ],
              [
                127.2305,
                36.7079
              ],
              [
                127.2308,
                36.708
              ],
              [
                127.2308,
                36.708
              ],
              [
                127.2311,
                36.7084
              ],
              [
                127.2313,
                36.7085
              ],
              [
                127.2317,
                36.7088
              ],
              [
                127.2322,
                36.7091
              ],
              [
                127.2334,
                36.709
              ],
              [
                127.2337,
                36.7089
              ],
              [
                127.2341,
                36.7088
              ],
              [
                127.2343,
                36.7088
              ],
              [
                127.2364,
                36.7075
              ],
              [
                127.2365,
                36.7072
              ],
              [
                127.2369,
                36.7065
              ],
              [
                127.237,
                36.7059
              ],
              [
                127.237,
                36.7057
              ],
              [
                127.237,
                36.7053
              ],
              [
                127.237,
                36.7052
              ],
              [
                127.237,
                36.7051
              ],
              [
                127.237,
                36.705
              ],
              [
                127.237,
                36.7047
              ],
              [
                127.237,
                36.7044
              ],
              [
                127.2399,
                36.7022
              ],
              [
                127.2416,
                36.7013
              ],
              [
                127.2439,
                36.6979
              ],
              [
                127.2456,
                36.696
              ],
              [
                127.2457,
                36.6959
              ],
              [
                127.248,
                36.6951
              ],
              [
                127.2484,
                36.6954
              ],
              [
                127.2512,
                36.697
              ],
              [
                127.2513,
                36.697
              ],
              [
                127.2514,
                36.697
              ],
              [
                127.2522,
                36.6968
              ],
              [
                127.2529,
                36.6961
              ],
              [
                127.253,
                36.6959
              ],
              [
                127.2541,
                36.695
              ],
              [
                127.2576,
                36.6927
              ],
              [
                127.2641,
                36.6922
              ],
              [
                127.2652,
                36.6922
              ],
              [
                127.267,
                36.6927
              ],
              [
                127.2697,
                36.6937
              ],
              [
                127.27,
                36.694
              ],
              [
                127.2703,
                36.6943
              ],
              [
                127.2703,
                36.6943
              ],
              [
                127.2704,
                36.6944
              ],
              [
                127.2708,
                36.6946
              ],
              [
                127.2735,
                36.6953
              ],
              [
                127.2736,
                36.6952
              ],
              [
                127.2737,
                36.6951
              ],
              [
                127.2739,
                36.6949
              ],
              [
                127.2741,
                36.6948
              ],
              [
                127.2758,
                36.6935
              ],
              [
                127.2758,
                36.6935
              ],
              [
                127.2758,
                36.6933
              ],
              [
                127.2758,
                36.6933
              ],
              [
                127.2758,
                36.6933
              ],
              [
                127.2763,
                36.6925
              ],
              [
                127.2766,
                36.6919
              ],
              [
                127.2777,
                36.6913
              ],
              [
                127.2814,
                36.6904
              ],
              [
                127.2842,
                36.6905
              ],
              [
                127.2846,
                36.6905
              ],
              [
                127.2853,
                36.6906
              ],
              [
                127.2853,
                36.6907
              ],
              [
                127.2857,
                36.6907
              ],
              [
                127.287,
                36.6904
              ],
              [
                127.2875,
                36.6902
              ],
              [
                127.2886,
                36.6896
              ],
              [
                127.2889,
                36.6895
              ],
              [
                127.2895,
                36.6886
              ],
              [
                127.2895,
                36.6883
              ],
              [
                127.2895,
                36.6882
              ],
              [
                127.2921,
                36.6871
              ],
              [
                127.2967,
                36.6858
              ],
              [
                127.2976,
                36.6858
              ],
              [
                127.2987,
                36.6858
              ],
              [
                127.2996,
                36.6859
              ],
              [
                127.3018,
                36.6857
              ],
              [
                127.3023,
                36.6856
              ],
              [
                127.3031,
                36.6855
              ],
              [
                127.3041,
                36.685
              ],
              [
                127.3076,
                36.682
              ],
              [
                127.3075,
                36.6783
              ],
              [
                127.3068,
                36.6766
              ],
              [
                127.3062,
                36.6755
              ],
              [
                127.306,
                36.6725
              ],
              [
                127.3061,
                36.6722
              ],
              [
                127.3061,
                36.6722
              ],
              [
                127.306,
                36.6713
              ],
              [
                127.3057,
                36.6703
              ],
              [
                127.3051,
                36.6676
              ],
              [
                127.3046,
                36.6674
              ],
              [
                127.3039,
                36.6671
              ],
              [
                127.303,
                36.6664
              ],
              [
                127.3023,
                36.6657
              ],
              [
                127.3012,
                36.6641
              ],
              [
                127.2997,
                36.6622
              ],
              [
                127.2968,
                36.6608
              ],
              [
                127.2929,
                36.6598
              ],
              [
                127.2892,
                36.6593
              ],
              [
                127.2887,
                36.6589
              ],
              [
                127.2861,
                36.6517
              ],
              [
                127.2844,
                36.65
              ],
              [
                127.2841,
                36.6494
              ],
              [
                127.2816,
                36.6451
              ],
              [
                127.2822,
                36.6432
              ],
              [
                127.2828,
                36.6423
              ],
              [
                127.2801,
                36.6409
              ],
              [
                127.2799,
                36.6408
              ],
              [
                127.2795,
                36.6407
              ],
              [
                127.279,
                36.6411
              ],
              [
                127.2786,
                36.6413
              ],
              [
                127.2786,
                36.6413
              ],
              [
                127.2771,
                36.6418
              ],
              [
                127.277,
                36.6419
              ],
              [
                127.2765,
                36.6413
              ],
              [
                127.2757,
                36.6398
              ],
              [
                127.2758,
                36.6394
              ],
              [
                127.2774,
                36.6366
              ],
              [
                127.279,
                36.6338
              ],
              [
                127.2792,
                36.6337
              ],
              [
                127.2793,
                36.6336
              ],
              [
                127.2794,
                36.6335
              ],
              [
                127.2794,
                36.6335
              ],
              [
                127.2795,
                36.6335
              ],
              [
                127.2796,
                36.6337
              ],
              [
                127.28,
                36.634
              ],
              [
                127.2808,
                36.6344
              ],
              [
                127.2811,
                36.6344
              ],
              [
                127.2817,
                36.6345
              ],
              [
                127.2823,
                36.6346
              ],
              [
                127.2834,
                36.6345
              ],
              [
                127.2849,
                36.6341
              ],
              [
                127.286,
                36.6347
              ],
              [
                127.287,
                36.6359
              ],
              [
                127.287,
                36.6359
              ],
              [
                127.2871,
                36.636
              ],
              [
                127.2872,
                36.6361
              ],
              [
                127.2887,
                36.6368
              ],
              [
                127.2892,
                36.6369
              ],
              [
                127.2895,
                36.6369
              ],
              [
                127.29,
                36.6369
              ],
              [
                127.2903,
                36.6369
              ],
              [
                127.2906,
                36.6369
              ],
              [
                127.2908,
                36.6368
              ],
              [
                127.291,
                36.6367
              ],
              [
                127.2912,
                36.6366
              ],
              [
                127.2914,
                36.6364
              ],
              [
                127.2917,
                36.6361
              ],
              [
                127.292,
                36.6358
              ],
              [
                127.2922,
                36.6356
              ],
              [
                127.2922,
                36.6354
              ],
              [
                127.2923,
                36.6352
              ],
              [
                127.2922,
                36.6349
              ],
              [
                127.2922,
                36.6349
              ],
              [
                127.2918,
                36.6337
              ],
              [
                127.2917,
                36.6334
              ],
              [
                127.2915,
                36.633
              ],
              [
                127.2914,
                36.6328
              ],
              [
                127.2912,
                36.6327
              ],
              [
                127.2911,
                36.6326
              ],
              [
                127.2909,
                36.632
              ],
              [
                127.2909,
                36.632
              ],
              [
                127.2908,
                36.6318
              ],
              [
                127.2908,
                36.6315
              ],
              [
                127.2907,
                36.6311
              ],
              [
                127.2907,
                36.631
              ],
              [
                127.2907,
                36.6306
              ],
              [
                127.2907,
                36.6305
              ],
              [
                127.2907,
                36.6301
              ],
              [
                127.2911,
                36.6282
              ],
              [
                127.2912,
                36.6276
              ],
              [
                127.2912,
                36.6274
              ],
              [
                127.2914,
                36.6266
              ],
              [
                127.2915,
                36.6264
              ],
              [
                127.2915,
                36.6263
              ],
              [
                127.2917,
                36.6258
              ],
              [
                127.2918,
                36.6256
              ],
              [
                127.292,
                36.625
              ],
              [
                127.2921,
                36.6249
              ],
              [
                127.2922,
                36.6248
              ],
              [
                127.2922,
                36.6248
              ],
              [
                127.2924,
                36.6247
              ],
              [
                127.2925,
                36.6247
              ],
              [
                127.2928,
                36.6246
              ],
              [
                127.2932,
                36.6245
              ],
              [
                127.2939,
                36.6244
              ],
              [
                127.2945,
                36.6244
              ],
              [
                127.2947,
                36.6245
              ],
              [
                127.295,
                36.6245
              ],
              [
                127.2952,
                36.6246
              ],
              [
                127.2955,
                36.6246
              ],
              [
                127.2958,
                36.6246
              ],
              [
                127.2961,
                36.6244
              ],
              [
                127.2963,
                36.6242
              ],
              [
                127.2963,
                36.6238
              ],
              [
                127.2964,
                36.6234
              ],
              [
                127.2963,
                36.6225
              ],
              [
                127.2962,
                36.622
              ],
              [
                127.296,
                36.6214
              ],
              [
                127.2958,
                36.621
              ],
              [
                127.2958,
                36.6205
              ],
              [
                127.2958,
                36.6202
              ],
              [
                127.2959,
                36.6197
              ],
              [
                127.2961,
                36.6194
              ],
              [
                127.2964,
                36.619
              ],
              [
                127.2983,
                36.6187
              ],
              [
                127.2989,
                36.6187
              ],
              [
                127.2993,
                36.6183
              ],
              [
                127.2995,
                36.6181
              ],
              [
                127.2996,
                36.6179
              ],
              [
                127.2998,
                36.6177
              ],
              [
                127.3001,
                36.6172
              ],
              [
                127.3001,
                36.617
              ],
              [
                127.3002,
                36.6168
              ],
              [
                127.3003,
                36.6165
              ],
              [
                127.3002,
                36.6153
              ],
              [
                127.3001,
                36.6148
              ],
              [
                127.3001,
                36.6144
              ],
              [
                127.3001,
                36.6141
              ],
              [
                127.3001,
                36.6139
              ],
              [
                127.3004,
                36.6135
              ],
              [
                127.3005,
                36.6132
              ],
              [
                127.3006,
                36.613
              ],
              [
                127.3007,
                36.6129
              ],
              [
                127.3012,
                36.6128
              ],
              [
                127.3017,
                36.6128
              ],
              [
                127.3018,
                36.6128
              ],
              [
                127.3018,
                36.6128
              ],
              [
                127.3019,
                36.6122
              ],
              [
                127.302,
                36.6118
              ],
              [
                127.302,
                36.6114
              ],
              [
                127.3016,
                36.6093
              ],
              [
                127.3008,
                36.6077
              ],
              [
                127.3033,
                36.6057
              ],
              [
                127.3033,
                36.6056
              ],
              [
                127.3036,
                36.6054
              ],
              [
                127.3041,
                36.605
              ],
              [
                127.3045,
                36.6047
              ],
              [
                127.3049,
                36.6044
              ],
              [
                127.3055,
                36.6038
              ],
              [
                127.3055,
                36.6037
              ],
              [
                127.3057,
                36.6034
              ],
              [
                127.3062,
                36.6026
              ],
              [
                127.3062,
                36.6025
              ],
              [
                127.3063,
                36.6023
              ],
              [
                127.3064,
                36.6021
              ],
              [
                127.3064,
                36.602
              ],
              [
                127.3065,
                36.6018
              ],
              [
                127.3065,
                36.6014
              ],
              [
                127.3066,
                36.6009
              ],
              [
                127.3066,
                36.6006
              ],
              [
                127.3066,
                36.6004
              ],
              [
                127.3066,
                36.5998
              ],
              [
                127.3065,
                36.5996
              ],
              [
                127.3061,
                36.5987
              ],
              [
                127.3056,
                36.5976
              ],
              [
                127.3054,
                36.5974
              ],
              [
                127.3051,
                36.5969
              ],
              [
                127.3049,
                36.5966
              ],
              [
                127.3049,
                36.5966
              ],
              [
                127.3048,
                36.5962
              ],
              [
                127.3047,
                36.5958
              ],
              [
                127.3046,
                36.5954
              ],
              [
                127.3046,
                36.5943
              ],
              [
                127.3046,
                36.594
              ],
              [
                127.3047,
                36.5936
              ],
              [
                127.3048,
                36.5931
              ],
              [
                127.305,
                36.5926
              ],
              [
                127.305,
                36.5925
              ],
              [
                127.305,
                36.5923
              ],
              [
                127.305,
                36.592
              ],
              [
                127.3049,
                36.5917
              ],
              [
                127.3048,
                36.5914
              ],
              [
                127.3046,
                36.591
              ],
              [
                127.3044,
                36.5907
              ],
              [
                127.3041,
                36.5904
              ],
              [
                127.3038,
                36.59
              ],
              [
                127.3035,
                36.5898
              ],
              [
                127.3022,
                36.5888
              ],
              [
                127.3018,
                36.5885
              ],
              [
                127.3014,
                36.5883
              ],
              [
                127.3005,
                36.5879
              ],
              [
                127.3,
                36.5877
              ],
              [
                127.3,
                36.5877
              ],
              [
                127.2999,
                36.5877
              ],
              [
                127.2998,
                36.5877
              ],
              [
                127.2996,
                36.5873
              ],
              [
                127.2994,
                36.5869
              ],
              [
                127.2995,
                36.5866
              ],
              [
                127.2996,
                36.5863
              ],
              [
                127.2998,
                36.586
              ],
              [
                127.3034,
                36.5837
              ],
              [
                127.3039,
                36.5834
              ],
              [
                127.304,
                36.5833
              ],
              [
                127.3051,
                36.5831
              ],
              [
                127.3052,
                36.5831
              ],
              [
                127.3058,
                36.583
              ],
              [
                127.3061,
                36.583
              ],
              [
                127.3062,
                36.583
              ],
              [
                127.3085,
                36.5829
              ],
              [
                127.3127,
                36.5829
              ],
              [
                127.3129,
                36.5829
              ],
              [
                127.3132,
                36.5829
              ],
              [
                127.3162,
                36.5833
              ],
              [
                127.319,
                36.5837
              ],
              [
                127.3208,
                36.5838
              ],
              [
                127.3214,
                36.5838
              ],
              [
                127.3221,
                36.5815
              ],
              [
                127.3255,
                36.5777
              ],
              [
                127.3266,
                36.5765
              ],
              [
                127.3273,
                36.576
              ],
              [
                127.3279,
                36.5758
              ],
              [
                127.328,
                36.5758
              ],
              [
                127.3294,
                36.5753
              ],
              [
                127.331,
                36.5751
              ],
              [
                127.3312,
                36.5749
              ],
              [
                127.3318,
                36.5745
              ],
              [
                127.3358,
                36.5711
              ],
              [
                127.3366,
                36.57
              ],
              [
                127.3362,
                36.5695
              ],
              [
                127.3361,
                36.5693
              ],
              [
                127.3358,
                36.5689
              ],
              [
                127.3355,
                36.5686
              ],
              [
                127.3353,
                36.5684
              ],
              [
                127.3352,
                36.5681
              ],
              [
                127.337,
                36.5628
              ],
              [
                127.3378,
                36.5624
              ],
              [
                127.3381,
                36.5623
              ],
              [
                127.3382,
                36.5623
              ],
              [
                127.3389,
                36.5627
              ],
              [
                127.341,
                36.5636
              ],
              [
                127.3426,
                36.5641
              ],
              [
                127.3444,
                36.5644
              ],
              [
                127.3471,
                36.5645
              ],
              [
                127.349,
                36.5638
              ],
              [
                127.3495,
                36.5635
              ],
              [
                127.3503,
                36.5629
              ],
              [
                127.351,
                36.5622
              ],
              [
                127.3519,
                36.5621
              ],
              [
                127.3525,
                36.5622
              ],
              [
                127.3531,
                36.5622
              ],
              [
                127.3563,
                36.5617
              ],
              [
                127.3567,
                36.5617
              ],
              [
                127.3576,
                36.5618
              ],
              [
                127.3601,
                36.5622
              ],
              [
                127.3605,
                36.5623
              ],
              [
                127.3605,
                36.5623
              ],
              [
                127.3607,
                36.5625
              ],
              [
                127.3608,
                36.5627
              ],
              [
                127.3608,
                36.5629
              ],
              [
                127.3609,
                36.5629
              ],
              [
                127.3609,
                36.5631
              ],
              [
                127.3615,
                36.5638
              ],
              [
                127.3616,
                36.564
              ],
              [
                127.3619,
                36.5642
              ],
              [
                127.3623,
                36.5644
              ],
              [
                127.3625,
                36.5644
              ],
              [
                127.3625,
                36.5645
              ],
              [
                127.3651,
                36.5642
              ],
              [
                127.3709,
                36.5665
              ],
              [
                127.3759,
                36.5675
              ],
              [
                127.3762,
                36.5676
              ],
              [
                127.3771,
                36.5679
              ],
              [
                127.3771,
                36.5679
              ],
              [
                127.3772,
                36.5679
              ],
              [
                127.3775,
                36.5678
              ],
              [
                127.377,
                36.564
              ],
              [
                127.3779,
                36.563
              ],
              [
                127.378,
                36.5629
              ],
              [
                127.378,
                36.5629
              ],
              [
                127.3765,
                36.5609
              ],
              [
                127.3756,
                36.5604
              ],
              [
                127.375,
                36.5602
              ],
              [
                127.3732,
                36.5602
              ],
              [
                127.373,
                36.5601
              ],
              [
                127.3727,
                36.56
              ],
              [
                127.3727,
                36.5599
              ],
              [
                127.3725,
                36.5597
              ],
              [
                127.3732,
                36.5584
              ],
              [
                127.3735,
                36.5578
              ],
              [
                127.3736,
                36.5577
              ],
              [
                127.3738,
                36.5576
              ],
              [
                127.3744,
                36.5577
              ],
              [
                127.3745,
                36.5577
              ],
              [
                127.3746,
                36.5577
              ],
              [
                127.3749,
                36.5578
              ],
              [
                127.3756,
                36.5579
              ],
              [
                127.3756,
                36.5578
              ],
              [
                127.3756,
                36.5578
              ],
              [
                127.3756,
                36.5578
              ],
              [
                127.3778,
                36.5556
              ],
              [
                127.3781,
                36.5552
              ],
              [
                127.3786,
                36.5542
              ],
              [
                127.379,
                36.5534
              ],
              [
                127.3792,
                36.5526
              ],
              [
                127.3789,
                36.5525
              ],
              [
                127.3787,
                36.5522
              ],
              [
                127.3784,
                36.5511
              ],
              [
                127.3785,
                36.5502
              ],
              [
                127.3785,
                36.5498
              ],
              [
                127.3789,
                36.5496
              ],
              [
                127.3792,
                36.5494
              ],
              [
                127.381,
                36.5489
              ],
              [
                127.3817,
                36.5489
              ],
              [
                127.3825,
                36.5484
              ],
              [
                127.3832,
                36.5479
              ],
              [
                127.3839,
                36.5455
              ],
              [
                127.384,
                36.5445
              ],
              [
                127.3839,
                36.5438
              ],
              [
                127.3839,
                36.5438
              ],
              [
                127.3837,
                36.5434
              ],
              [
                127.3835,
                36.5431
              ],
              [
                127.3835,
                36.5429
              ],
              [
                127.3836,
                36.5422
              ],
              [
                127.3838,
                36.5418
              ],
              [
                127.3839,
                36.5415
              ],
              [
                127.3844,
                36.5412
              ],
              [
                127.389,
                36.5404
              ],
              [
                127.3896,
                36.5403
              ],
              [
                127.3923,
                36.54
              ],
              [
                127.3932,
                36.54
              ],
              [
                127.3951,
                36.5401
              ],
              [
                127.3965,
                36.5402
              ],
              [
                127.3978,
                36.5402
              ],
              [
                127.3985,
                36.5406
              ],
              [
                127.399,
                36.541
              ],
              [
                127.3992,
                36.5412
              ],
              [
                127.4001,
                36.5417
              ],
              [
                127.4002,
                36.5418
              ],
              [
                127.4015,
                36.5415
              ],
              [
                127.4018,
                36.5412
              ],
              [
                127.405,
                36.5373
              ],
              [
                127.4052,
                36.5366
              ],
              [
                127.4052,
                36.5364
              ],
              [
                127.4054,
                36.5342
              ],
              [
                127.4056,
                36.5314
              ],
              [
                127.408,
                36.5278
              ],
              [
                127.4084,
                36.5272
              ],
              [
                127.4087,
                36.5253
              ],
              [
                127.4087,
                36.5252
              ],
              [
                127.4087,
                36.524
              ],
              [
                127.4086,
                36.5237
              ],
              [
                127.4077,
                36.5231
              ],
              [
                127.4068,
                36.5232
              ],
              [
                127.4062,
                36.5238
              ],
              [
                127.4043,
                36.5239
              ],
              [
                127.4019,
                36.5238
              ],
              [
                127.4015,
                36.5237
              ],
              [
                127.3979,
                36.5213
              ],
              [
                127.3978,
                36.5213
              ],
              [
                127.3978,
                36.5212
              ],
              [
                127.3977,
                36.521
              ],
              [
                127.3976,
                36.5206
              ],
              [
                127.4004,
                36.519
              ],
              [
                127.4014,
                36.5185
              ],
              [
                127.4031,
                36.5176
              ],
              [
                127.4038,
                36.5174
              ],
              [
                127.4041,
                36.5169
              ],
              [
                127.4042,
                36.5168
              ],
              [
                127.4042,
                36.5154
              ],
              [
                127.4047,
                36.5127
              ],
              [
                127.4047,
                36.5126
              ],
              [
                127.4049,
                36.5121
              ],
              [
                127.4049,
                36.5119
              ],
              [
                127.4065,
                36.5113
              ],
              [
                127.4088,
                36.5099
              ],
              [
                127.409,
                36.5097
              ],
              [
                127.4091,
                36.5074
              ],
              [
                127.4088,
                36.5063
              ],
              [
                127.4084,
                36.5052
              ],
              [
                127.4081,
                36.5044
              ],
              [
                127.4078,
                36.5033
              ],
              [
                127.4087,
                36.4995
              ],
              [
                127.4103,
                36.4983
              ],
              [
                127.4106,
                36.4981
              ],
              [
                127.4108,
                36.4978
              ],
              [
                127.4106,
                36.4963
              ],
              [
                127.4106,
                36.4963
              ],
              [
                127.4098,
                36.4953
              ],
              [
                127.4094,
                36.4952
              ],
              [
                127.4054,
                36.4942
              ],
              [
                127.4003,
                36.4934
              ],
              [
                127.3998,
                36.4933
              ],
              [
                127.397,
                36.4923
              ],
              [
                127.3961,
                36.4917
              ],
              [
                127.3961,
                36.4917
              ],
              [
                127.3959,
                36.4919
              ],
              [
                127.3958,
                36.492
              ],
              [
                127.395,
                36.4925
              ],
              [
                127.3938,
                36.4932
              ],
              [
                127.3934,
                36.4935
              ],
              [
                127.3933,
                36.4936
              ],
              [
                127.3927,
                36.4942
              ],
              [
                127.3923,
                36.4946
              ],
              [
                127.392,
                36.4949
              ],
              [
                127.3869,
                36.4986
              ],
              [
                127.3868,
                36.4987
              ],
              [
                127.3859,
                36.4992
              ],
              [
                127.3854,
                36.4994
              ],
              [
                127.3839,
                36.5002
              ],
              [
                127.3803,
                36.4995
              ],
              [
                127.3803,
                36.4995
              ],
              [
                127.3801,
                36.4993
              ],
              [
                127.3799,
                36.499
              ],
              [
                127.3794,
                36.4983
              ],
              [
                127.3794,
                36.4983
              ],
              [
                127.3791,
                36.4979
              ],
              [
                127.379,
                36.4977
              ],
              [
                127.3788,
                36.4973
              ],
              [
                127.3776,
                36.4956
              ],
              [
                127.3776,
                36.4956
              ],
              [
                127.3776,
                36.4956
              ],
              [
                127.3743,
                36.4926
              ],
              [
                127.3742,
                36.4925
              ],
              [
                127.3732,
                36.4918
              ],
              [
                127.3727,
                36.4914
              ],
              [
                127.372,
                36.4909
              ],
              [
                127.3717,
                36.4907
              ],
              [
                127.3714,
                36.4905
              ],
              [
                127.3708,
                36.4902
              ],
              [
                127.3689,
                36.4896
              ],
              [
                127.3692,
                36.4886
              ],
              [
                127.3685,
                36.4883
              ],
              [
                127.3684,
                36.4883
              ],
              [
                127.3683,
                36.4882
              ],
              [
                127.3682,
                36.4882
              ],
              [
                127.3682,
                36.4882
              ],
              [
                127.3681,
                36.4882
              ],
              [
                127.3679,
                36.4883
              ],
              [
                127.3646,
                36.4893
              ],
              [
                127.3635,
                36.4896
              ],
              [
                127.3634,
                36.4897
              ],
              [
                127.3633,
                36.4897
              ],
              [
                127.3602,
                36.4885
              ],
              [
                127.3591,
                36.4852
              ],
              [
                127.3589,
                36.4826
              ],
              [
                127.3606,
                36.4786
              ],
              [
                127.3618,
                36.477
              ],
              [
                127.3622,
                36.4765
              ],
              [
                127.3628,
                36.4759
              ],
              [
                127.3639,
                36.4752
              ],
              [
                127.3639,
                36.4752
              ],
              [
                127.364,
                36.475
              ],
              [
                127.364,
                36.4749
              ],
              [
                127.364,
                36.4749
              ],
              [
                127.364,
                36.4749
              ],
              [
                127.364,
                36.4748
              ],
              [
                127.3639,
                36.4744
              ],
              [
                127.3639,
                36.4744
              ],
              [
                127.3622,
                36.4711
              ],
              [
                127.36,
                36.469
              ],
              [
                127.3596,
                36.4665
              ],
              [
                127.3586,
                36.4651
              ],
              [
                127.3565,
                36.4633
              ],
              [
                127.3567,
                36.4589
              ],
              [
                127.3568,
                36.4587
              ],
              [
                127.3568,
                36.4587
              ],
              [
                127.3573,
                36.4583
              ],
              [
                127.3578,
                36.4581
              ],
              [
                127.3584,
                36.4567
              ],
              [
                127.3586,
                36.4559
              ],
              [
                127.3586,
                36.4559
              ],
              [
                127.3558,
                36.4503
              ],
              [
                127.3534,
                36.4479
              ],
              [
                127.3532,
                36.4478
              ],
              [
                127.3529,
                36.4476
              ],
              [
                127.3526,
                36.4476
              ],
              [
                127.3519,
                36.4478
              ],
              [
                127.3514,
                36.4479
              ],
              [
                127.3497,
                36.448
              ],
              [
                127.3474,
                36.4464
              ],
              [
                127.3466,
                36.4458
              ],
              [
                127.3449,
                36.4444
              ],
              [
                127.3443,
                36.4433
              ],
              [
                127.3432,
                36.4402
              ],
              [
                127.3403,
                36.4357
              ],
              [
                127.3405,
                36.4333
              ],
              [
                127.3406,
                36.4322
              ],
              [
                127.3409,
                36.4314
              ],
              [
                127.341,
                36.431
              ],
              [
                127.3405,
                36.4305
              ],
              [
                127.3398,
                36.43
              ],
              [
                127.3376,
                36.4283
              ],
              [
                127.3375,
                36.4283
              ],
              [
                127.3355,
                36.4276
              ],
              [
                127.3327,
                36.4265
              ],
              [
                127.3324,
                36.4257
              ],
              [
                127.3323,
                36.4257
              ],
              [
                127.3323,
                36.4255
              ],
              [
                127.3303,
                36.4241
              ],
              [
                127.3303,
                36.424
              ],
              [
                127.3298,
                36.4238
              ],
              [
                127.3298,
                36.4237
              ],
              [
                127.3291,
                36.4233
              ],
              [
                127.3263,
                36.4221
              ],
              [
                127.3234,
                36.4227
              ],
              [
                127.322,
                36.4234
              ],
              [
                127.3191,
                36.4215
              ],
              [
                127.3181,
                36.421
              ],
              [
                127.3168,
                36.4205
              ],
              [
                127.3164,
                36.4205
              ],
              [
                127.3164,
                36.4205
              ],
              [
                127.3164,
                36.4205
              ],
              [
                127.3164,
                36.4211
              ],
              [
                127.3164,
                36.4211
              ],
              [
                127.3162,
                36.4212
              ],
              [
                127.316,
                36.4216
              ],
              [
                127.3148,
                36.4225
              ],
              [
                127.3141,
                36.4229
              ],
              [
                127.3116,
                36.4241
              ],
              [
                127.3109,
                36.4247
              ],
              [
                127.3099,
                36.4248
              ],
              [
                127.3064,
                36.4248
              ],
              [
                127.305,
                36.4248
              ],
              [
                127.3035,
                36.4247
              ],
              [
                127.3028,
                36.4243
              ],
              [
                127.3026,
                36.4242
              ],
              [
                127.3019,
                36.4231
              ],
              [
                127.2993,
                36.4229
              ],
              [
                127.2982,
                36.4231
              ],
              [
                127.2964,
                36.4232
              ],
              [
                127.2942,
                36.4222
              ],
              [
                127.2946,
                36.4214
              ],
              [
                127.295,
                36.421
              ],
              [
                127.2952,
                36.4209
              ],
              [
                127.2953,
                36.4198
              ],
              [
                127.2911,
                36.4162
              ],
              [
                127.2908,
                36.4161
              ],
              [
                127.2868,
                36.4153
              ],
              [
                127.2857,
                36.4151
              ],
              [
                127.2857,
                36.4152
              ],
              [
                127.2852,
                36.4153
              ],
              [
                127.2849,
                36.4152
              ],
              [
                127.2846,
                36.4152
              ],
              [
                127.2834,
                36.415
              ],
              [
                127.2821,
                36.4146
              ],
              [
                127.2821,
                36.415
              ],
              [
                127.2811,
                36.4153
              ],
              [
                127.2811,
                36.4154
              ],
              [
                127.2799,
                36.4154
              ],
              [
                127.2785,
                36.4147
              ],
              [
                127.2775,
                36.4141
              ],
              [
                127.2774,
                36.4141
              ],
              [
                127.2773,
                36.414
              ],
              [
                127.2772,
                36.414
              ],
              [
                127.277,
                36.4139
              ],
              [
                127.2768,
                36.4139
              ],
              [
                127.2766,
                36.4139
              ],
              [
                127.2764,
                36.4139
              ],
              [
                127.2763,
                36.4139
              ],
              [
                127.2763,
                36.4139
              ],
              [
                127.2761,
                36.4139
              ],
              [
                127.2757,
                36.4139
              ],
              [
                127.2755,
                36.414
              ],
              [
                127.2754,
                36.414
              ],
              [
                127.2746,
                36.4143
              ],
              [
                127.2743,
                36.4144
              ],
              [
                127.273,
                36.4148
              ],
              [
                127.2727,
                36.415
              ],
              [
                127.2711,
                36.4158
              ],
              [
                127.2682,
                36.4167
              ],
              [
                127.2673,
                36.417
              ],
              [
                127.2669,
                36.4171
              ],
              [
                127.2664,
                36.4171
              ],
              [
                127.2657,
                36.4172
              ],
              [
                127.2655,
                36.4172
              ],
              [
                127.2634,
                36.4168
              ],
              [
                127.2628,
                36.4167
              ],
              [
                127.2626,
                36.4167
              ],
              [
                127.2624,
                36.4166
              ],
              [
                127.2608,
                36.416
              ],
              [
                127.2598,
                36.4155
              ],
              [
                127.2596,
                36.4153
              ],
              [
                127.2589,
                36.4146
              ],
              [
                127.2587,
                36.4144
              ],
              [
                127.2586,
                36.4142
              ],
              [
                127.2586,
                36.414
              ],
              [
                127.2586,
                36.4137
              ],
              [
                127.2586,
                36.4133
              ],
              [
                127.259,
                36.4121
              ],
              [
                127.2591,
                36.4118
              ],
              [
                127.2592,
                36.4114
              ],
              [
                127.2594,
                36.411
              ],
              [
                127.2596,
                36.4104
              ],
              [
                127.2594,
                36.4098
              ],
              [
                127.2593,
                36.4094
              ],
              [
                127.2591,
                36.4091
              ],
              [
                127.2581,
                36.4083
              ],
              [
                127.2581,
                36.4083
              ],
              [
                127.2579,
                36.4082
              ],
              [
                127.2575,
                36.4081
              ],
              [
                127.2573,
                36.408
              ],
              [
                127.2572,
                36.408
              ],
              [
                127.2508,
                36.4068
              ],
              [
                127.2506,
                36.4068
              ],
              [
                127.25,
                36.4074
              ],
              [
                127.2497,
                36.4078
              ],
              [
                127.2495,
                36.4082
              ],
              [
                127.2494,
                36.4083
              ],
              [
                127.2466,
                36.4122
              ],
              [
                127.2443,
                36.4146
              ],
              [
                127.243,
                36.4174
              ],
              [
                127.2423,
                36.4186
              ],
              [
                127.2399,
                36.4184
              ],
              [
                127.2363,
                36.4187
              ],
              [
                127.2356,
                36.4188
              ],
              [
                127.2319,
                36.4199
              ],
              [
                127.2318,
                36.4202
              ],
              [
                127.2318,
                36.4206
              ],
              [
                127.2317,
                36.4219
              ],
              [
                127.2308,
                36.4224
              ],
              [
                127.2288,
                36.4228
              ],
              [
                127.2286,
                36.4227
              ],
              [
                127.2284,
                36.4226
              ],
              [
                127.2279,
                36.422
              ],
              [
                127.2275,
                36.4215
              ],
              [
                127.2269,
                36.4212
              ],
              [
                127.2256,
                36.4223
              ],
              [
                127.2254,
                36.4231
              ],
              [
                127.225,
                36.4253
              ],
              [
                127.2251,
                36.4267
              ],
              [
                127.2245,
                36.4272
              ],
              [
                127.2225,
                36.4285
              ],
              [
                127.2196,
                36.4308
              ],
              [
                127.2187,
                36.4319
              ],
              [
                127.2181,
                36.4329
              ],
              [
                127.2181,
                36.433
              ],
              [
                127.2181,
                36.4333
              ],
              [
                127.2177,
                36.4337
              ],
              [
                127.2153,
                36.4344
              ],
              [
                127.2142,
                36.4346
              ],
              [
                127.2132,
                36.4348
              ],
              [
                127.2127,
                36.4356
              ],
              [
                127.2115,
                36.4357
              ],
              [
                127.209,
                36.4359
              ],
              [
                127.2078,
                36.4361
              ],
              [
                127.2071,
                36.4361
              ],
              [
                127.2061,
                36.4365
              ],
              [
                127.2051,
                36.4369
              ],
              [
                127.2027,
                36.4379
              ],
              [
                127.2016,
                36.4384
              ],
              [
                127.2005,
                36.4389
              ],
              [
                127.1995,
                36.4394
              ],
              [
                127.1989,
                36.4399
              ],
              [
                127.201,
                36.4411
              ],
              [
                127.201,
                36.4412
              ],
              [
                127.2011,
                36.4412
              ],
              [
                127.2011,
                36.4412
              ],
              [
                127.2014,
                36.4421
              ],
              [
                127.2018,
                36.4463
              ],
              [
                127.2013,
                36.4491
              ],
              [
                127.2007,
                36.45
              ],
              [
                127.2006,
                36.4501
              ],
              [
                127.2005,
                36.4503
              ],
              [
                127.1995,
                36.4507
              ],
              [
                127.1985,
                36.4517
              ],
              [
                127.1984,
                36.4522
              ],
              [
                127.2008,
                36.4536
              ],
              [
                127.2032,
                36.4561
              ],
              [
                127.2047,
                36.4593
              ],
              [
                127.2041,
                36.4625
              ],
              [
                127.2033,
                36.465
              ],
              [
                127.2023,
                36.4658
              ],
              [
                127.2011,
                36.4668
              ],
              [
                127.1998,
                36.4662
              ],
              [
                127.1995,
                36.4658
              ],
              [
                127.1986,
                36.4656
              ],
              [
                127.1979,
                36.466
              ],
              [
                127.1947,
                36.4688
              ],
              [
                127.1939,
                36.4701
              ],
              [
                127.192,
                36.4747
              ],
              [
                127.1905,
                36.4795
              ],
              [
                127.1942,
                36.4843
              ],
              [
                127.1948,
                36.4844
              ],
              [
                127.1949,
                36.4846
              ],
              [
                127.1949,
                36.4847
              ],
              [
                127.1949,
                36.486
              ],
              [
                127.1948,
                36.4886
              ],
              [
                127.1948,
                36.4893
              ],
              [
                127.1947,
                36.4896
              ],
              [
                127.1883,
                36.4926
              ],
              [
                127.1878,
                36.4927
              ],
              [
                127.1854,
                36.4932
              ],
              [
                127.1846,
                36.4933
              ],
              [
                127.1839,
                36.4933
              ],
              [
                127.1834,
                36.4934
              ],
              [
                127.1828,
                36.4933
              ],
              [
                127.1813,
                36.4929
              ],
              [
                127.1804,
                36.4926
              ],
              [
                127.1803,
                36.4924
              ],
              [
                127.18,
                36.4921
              ],
              [
                127.1784,
                36.4923
              ],
              [
                127.1771,
                36.4926
              ],
              [
                127.1748,
                36.4952
              ],
              [
                127.1734,
                36.4971
              ],
              [
                127.1734,
                36.4972
              ],
              [
                127.1732,
                36.4974
              ],
              [
                127.1735,
                36.4992
              ],
              [
                127.1757,
                36.5006
              ],
              [
                127.1776,
                36.5024
              ],
              [
                127.176,
                36.5054
              ],
              [
                127.1742,
                36.5064
              ],
              [
                127.1705,
                36.5085
              ],
              [
                127.1703,
                36.5087
              ],
              [
                127.17,
                36.509
              ],
              [
                127.1702,
                36.5116
              ],
              [
                127.1703,
                36.5117
              ],
              [
                127.174,
                36.5155
              ],
              [
                127.1757,
                36.5166
              ],
              [
                127.1773,
                36.5175
              ],
              [
                127.178,
                36.5179
              ],
              [
                127.1784,
                36.518
              ],
              [
                127.1796,
                36.5189
              ],
              [
                127.1821,
                36.5208
              ],
              [
                127.1823,
                36.5214
              ],
              [
                127.1778,
                36.5272
              ],
              [
                127.1767,
                36.528
              ],
              [
                127.1765,
                36.5282
              ],
              [
                127.1757,
                36.5289
              ],
              [
                127.1752,
                36.53
              ],
              [
                127.1753,
                36.5307
              ],
              [
                127.1754,
                36.5316
              ],
              [
                127.1749,
                36.533
              ],
              [
                127.1746,
                36.5331
              ],
              [
                127.1737,
                36.5333
              ],
              [
                127.173,
                36.5335
              ],
              [
                127.1726,
                36.5357
              ],
              [
                127.1727,
                36.5361
              ],
              [
                127.174,
                36.5379
              ],
              [
                127.1743,
                36.5383
              ],
              [
                127.1742,
                36.5392
              ],
              [
                127.1742,
                36.5399
              ],
              [
                127.1738,
                36.5408
              ],
              [
                127.1742,
                36.5422
              ],
              [
                127.175,
                36.5428
              ],
              [
                127.1787,
                36.5454
              ],
              [
                127.1793,
                36.5455
              ],
              [
                127.1801,
                36.5455
              ],
              [
                127.1808,
                36.5456
              ],
              [
                127.1812,
                36.5456
              ],
              [
                127.1813,
                36.5455
              ],
              [
                127.1821,
                36.545
              ],
              [
                127.1826,
                36.5446
              ],
              [
                127.1828,
                36.5441
              ],
              [
                127.1838,
                36.5437
              ],
              [
                127.185,
                36.5437
              ],
              [
                127.1858,
                36.5442
              ],
              [
                127.1862,
                36.5446
              ],
              [
                127.1864,
                36.5451
              ],
              [
                127.1869,
                36.5457
              ],
              [
                127.187,
                36.5458
              ],
              [
                127.1918,
                36.546
              ],
              [
                127.1918,
                36.546
              ],
              [
                127.1918,
                36.5468
              ],
              [
                127.1917,
                36.547
              ],
              [
                127.1915,
                36.5473
              ],
              [
                127.1913,
                36.5474
              ],
              [
                127.1907,
                36.5478
              ],
              [
                127.1886,
                36.5495
              ],
              [
                127.1873,
                36.551
              ],
              [
                127.1868,
                36.5529
              ],
              [
                127.1895,
                36.557
              ],
              [
                127.1905,
                36.5595
              ],
              [
                127.1927,
                36.5635
              ],
              [
                127.1934,
                36.5644
              ],
              [
                127.1934,
                36.5645
              ],
              [
                127.1938,
                36.5648
              ],
              [
                127.1949,
                36.565
              ],
              [
                127.1958,
                36.565
              ],
              [
                127.1963,
                36.5649
              ],
              [
                127.1968,
                36.5646
              ],
              [
                127.1975,
                36.5645
              ],
              [
                127.1992,
                36.5649
              ],
              [
                127.1994,
                36.565
              ],
              [
                127.2031,
                36.5674
              ],
              [
                127.2035,
                36.5699
              ],
              [
                127.2035,
                36.5712
              ],
              [
                127.2037,
                36.5727
              ],
              [
                127.2044,
                36.5734
              ],
              [
                127.2053,
                36.5742
              ],
              [
                127.2059,
                36.5746
              ],
              [
                127.2064,
                36.5748
              ],
              [
                127.2069,
                36.5753
              ],
              [
                127.2074,
                36.5763
              ],
              [
                127.2078,
                36.578
              ],
              [
                127.2075,
                36.5783
              ],
              [
                127.2076,
                36.5785
              ],
              [
                127.2071,
                36.5793
              ],
              [
                127.2061,
                36.5803
              ],
              [
                127.2057,
                36.5808
              ],
              [
                127.2036,
                36.5816
              ],
              [
                127.2004,
                36.5826
              ],
              [
                127.1998,
                36.5826
              ],
              [
                127.1997,
                36.5826
              ],
              [
                127.1993,
                36.5825
              ],
              [
                127.1992,
                36.5824
              ],
              [
                127.1992,
                36.5822
              ],
              [
                127.199,
                36.582
              ],
              [
                127.1987,
                36.5818
              ],
              [
                127.197,
                36.5811
              ],
              [
                127.1966,
                36.581
              ],
              [
                127.1945,
                36.5807
              ],
              [
                127.1944,
                36.5807
              ],
              [
                127.194,
                36.5806
              ],
              [
                127.1935,
                36.5807
              ],
              [
                127.193,
                36.5808
              ],
              [
                127.1895,
                36.5864
              ],
              [
                127.1894,
                36.5864
              ],
              [
                127.1893,
                36.5868
              ],
              [
                127.1906,
                36.5919
              ],
              [
                127.191,
                36.5926
              ],
              [
                127.1913,
                36.5935
              ],
              [
                127.1913,
                36.5935
              ],
              [
                127.1914,
                36.5939
              ],
              [
                127.19,
                36.5946
              ],
              [
                127.1899,
                36.5946
              ],
              [
                127.1896,
                36.5946
              ],
              [
                127.1896,
                36.5946
              ],
              [
                127.1892,
                36.5946
              ],
              [
                127.188,
                36.5941
              ],
              [
                127.1877,
                36.5939
              ],
              [
                127.1871,
                36.5935
              ],
              [
                127.1871,
                36.5929
              ],
              [
                127.1873,
                36.5928
              ],
              [
                127.1874,
                36.5926
              ],
              [
                127.1873,
                36.5923
              ],
              [
                127.1845,
                36.5912
              ],
              [
                127.1845,
                36.5912
              ],
              [
                127.1843,
                36.5912
              ],
              [
                127.1839,
                36.5915
              ],
              [
                127.1829,
                36.5925
              ],
              [
                127.1821,
                36.5933
              ],
              [
                127.1819,
                36.5951
              ],
              [
                127.1817,
                36.5955
              ],
              [
                127.1784,
                36.5969
              ],
              [
                127.1783,
                36.5969
              ],
              [
                127.1781,
                36.5969
              ],
              [
                127.174,
                36.5959
              ],
              [
                127.1731,
                36.5956
              ],
              [
                127.1731,
                36.5956
              ],
              [
                127.1727,
                36.5955
              ],
              [
                127.1727,
                36.5955
              ],
              [
                127.1726,
                36.596
              ],
              [
                127.1726,
                36.5964
              ],
              [
                127.1726,
                36.5967
              ],
              [
                127.1726,
                36.5968
              ],
              [
                127.1725,
                36.5969
              ],
              [
                127.1725,
                36.5969
              ],
              [
                127.1679,
                36.6011
              ],
              [
                127.1661,
                36.6026
              ],
              [
                127.1621,
                36.6046
              ],
              [
                127.1619,
                36.6047
              ],
              [
                127.1602,
                36.6051
              ],
              [
                127.1579,
                36.6063
              ],
              [
                127.1559,
                36.606
              ],
              [
                127.1559,
                36.606
              ],
              [
                127.1555,
                36.6067
              ],
              [
                127.155,
                36.6121
              ],
              [
                127.1551,
                36.6129
              ],
              [
                127.1551,
                36.6131
              ],
              [
                127.1556,
                36.6141
              ],
              [
                127.1558,
                36.6143
              ],
              [
                127.156,
                36.6151
              ],
              [
                127.1556,
                36.616
              ],
              [
                127.155,
                36.6165
              ],
              [
                127.1531,
                36.6175
              ],
              [
                127.1523,
                36.6179
              ],
              [
                127.1515,
                36.6179
              ],
              [
                127.1506,
                36.6183
              ],
              [
                127.1501,
                36.619
              ],
              [
                127.1504,
                36.6197
              ],
              [
                127.1509,
                36.6202
              ],
              [
                127.1528,
                36.6219
              ],
              [
                127.1534,
                36.6228
              ],
              [
                127.1543,
                36.6239
              ],
              [
                127.1549,
                36.6242
              ],
              [
                127.155,
                36.6242
              ],
              [
                127.1555,
                36.6242
              ],
              [
                127.1566,
                36.6239
              ],
              [
                127.1592,
                36.6239
              ],
              [
                127.1601,
                36.6241
              ],
              [
                127.1601,
                36.6241
              ],
              [
                127.1604,
                36.6244
              ],
              [
                127.1605,
                36.6245
              ],
              [
                127.1605,
                36.6247
              ],
              [
                127.1604,
                36.6263
              ],
              [
                127.16,
                36.6264
              ],
              [
                127.1595,
                36.626
              ],
              [
                127.1576,
                36.6268
              ],
              [
                127.1571,
                36.6272
              ],
              [
                127.1569,
                36.6276
              ],
              [
                127.1562,
                36.63
              ],
              [
                127.1561,
                36.6307
              ],
              [
                127.1563,
                36.6317
              ],
              [
                127.1565,
                36.6319
              ],
              [
                127.1566,
                36.6319
              ],
              [
                127.1571,
                36.6326
              ],
              [
                127.1575,
                36.6337
              ],
              [
                127.1581,
                36.6354
              ],
              [
                127.158,
                36.6358
              ],
              [
                127.158,
                36.6358
              ],
              [
                127.158,
                36.6358
              ],
              [
                127.1565,
                36.6398
              ],
              [
                127.1564,
                36.6399
              ],
              [
                127.1538,
                36.6431
              ],
              [
                127.1534,
                36.6437
              ],
              [
                127.1532,
                36.6452
              ],
              [
                127.154,
                36.6497
              ],
              [
                127.1547,
                36.6529
              ],
              [
                127.1557,
                36.6532
              ],
              [
                127.1564,
                36.6536
              ],
              [
                127.1606,
                36.6561
              ],
              [
                127.1605,
                36.6573
              ],
              [
                127.159,
                36.6614
              ],
              [
                127.1563,
                36.6633
              ],
              [
                127.1549,
                36.6643
              ],
              [
                127.1556,
                36.6675
              ],
              [
                127.1561,
                36.669
              ],
              [
                127.1586,
                36.673
              ],
              [
                127.1618,
                36.6754
              ],
              [
                127.1626,
                36.676
              ],
              [
                127.1634,
                36.6762
              ],
              [
                127.1641,
                36.6785
              ],
              [
                127.1639,
                36.6795
              ],
              [
                127.1636,
                36.6811
              ],
              [
                127.163,
                36.6831
              ],
              [
                127.1623,
                36.6849
              ],
              [
                127.1619,
                36.6857
              ],
              [
                127.1608,
                36.6878
              ],
              [
                127.1613,
                36.6899
              ],
              [
                127.1613,
                36.6899
              ],
              [
                127.1614,
                36.6902
              ],
              [
                127.1614,
                36.6904
              ],
              [
                127.1612,
                36.6912
              ],
              [
                127.1607,
                36.6923
              ],
              [
                127.1603,
                36.6927
              ],
              [
                127.1583,
                36.6951
              ],
              [
                127.1581,
                36.6953
              ],
              [
                127.1571,
                36.6957
              ],
              [
                127.1571,
                36.6956
              ],
              [
                127.1571,
                36.6956
              ],
              [
                127.1571,
                36.6948
              ],
              [
                127.1566,
                36.6911
              ],
              [
                127.1566,
                36.6911
              ],
              [
                127.1566,
                36.691
              ],
              [
                127.1562,
                36.6908
              ],
              [
                127.1522,
                36.6902
              ],
              [
                127.1492,
                36.6903
              ],
              [
                127.1455,
                36.6893
              ],
              [
                127.1438,
                36.689
              ],
              [
                127.1417,
                36.69
              ],
              [
                127.1416,
                36.6908
              ],
              [
                127.1422,
                36.6913
              ],
              [
                127.1425,
                36.6914
              ],
              [
                127.1429,
                36.6917
              ],
              [
                127.1429,
                36.6917
              ],
              [
                127.1429,
                36.6918
              ],
              [
                127.1409,
                36.6969
              ],
              [
                127.1407,
                36.6973
              ],
              [
                127.1393,
                36.6982
              ],
              [
                127.138,
                36.7014
              ],
              [
                127.1361,
                36.705
              ],
              [
                127.1354,
                36.7059
              ],
              [
                127.1346,
                36.7067
              ],
              [
                127.1344,
                36.7068
              ],
              [
                127.1342,
                36.7068
              ],
              [
                127.1338,
                36.7068
              ],
              [
                127.1336,
                36.7067
              ],
              [
                127.1333,
                36.7064
              ],
              [
                127.132,
                36.7062
              ],
              [
                127.13,
                36.7068
              ],
              [
                127.128,
                36.708
              ],
              [
                127.128,
                36.708
              ],
              [
                127.1279,
                36.708
              ],
              [
                127.1278,
                36.7082
              ],
              [
                127.1278,
                36.7084
              ],
              [
                127.1277,
                36.7085
              ],
              [
                127.1277,
                36.7086
              ],
              [
                127.1278,
                36.7088
              ],
              [
                127.1279,
                36.7089
              ],
              [
                127.1279,
                36.7089
              ],
              [
                127.1292,
                36.71
              ],
              [
                127.1296,
                36.7102
              ],
              [
                127.1305,
                36.7101
              ],
              [
                127.1306,
                36.7101
              ],
              [
                127.1309,
                36.7101
              ],
              [
                127.1316,
                36.7103
              ],
              [
                127.1362,
                36.7133
              ],
              [
                127.1405,
                36.716
              ],
              [
                127.1451,
                36.7175
              ],
              [
                127.1451,
                36.7175
              ],
              [
                127.1482,
                36.7199
              ],
              [
                127.1488,
                36.7206
              ],
              [
                127.1488,
                36.721
              ],
              [
                127.1488,
                36.7212
              ],
              [
                127.1487,
                36.7213
              ],
              [
                127.1485,
                36.7214
              ],
              [
                127.1482,
                36.7227
              ],
              [
                127.1495,
                36.7251
              ],
              [
                127.1499,
                36.726
              ],
              [
                127.1507,
                36.7262
              ],
              [
                127.1521,
                36.7268
              ],
              [
                127.1547,
                36.7279
              ],
              [
                127.1551,
                36.7277
              ],
              [
                127.1553,
                36.7276
              ],
              [
                127.1556,
                36.7274
              ],
              [
                127.1558,
                36.7273
              ],
              [
                127.1559,
                36.7273
              ],
              [
                127.1563,
                36.7272
              ],
              [
                127.1564,
                36.7272
              ],
              [
                127.1565,
                36.7272
              ],
              [
                127.1575,
                36.7275
              ],
              [
                127.1593,
                36.7314
              ],
              [
                127.1596,
                36.7328
              ],
              [
                127.1614,
                36.7331
              ],
              [
                127.1646,
                36.7338
              ],
              [
                127.1647,
                36.7338
              ],
              [
                127.1686,
                36.7331
              ],
              [
                127.1712,
                36.7322
              ],
              [
                127.1713,
                36.7321
              ],
              [
                127.1715,
                36.732
              ],
              [
                127.1719,
                36.7316
              ],
              [
                127.172,
                36.7311
              ],
              [
                127.1721,
                36.7308
              ]
            ]
          ]
        ]
      },
      "properties": {
        "name": "세종시",
        "base_year": "2018",
        "name_eng": "Sejongsi",
        "code": "29010"
      }
    }
  ]
}
